COSMOS 1933             
1 18958U 88020A   26002.59397395  .00008105  00000+0  40474-3 0  9994
2 18958  82.5150 316.2711 0006210  75.8891 284.3032 15.17329749 40208
SL-3 R/B                
1 19046U 88032B   26002.74588494  .00009494  00000+0  45204-3 0  9993
2 19046  97.5094 346.3257 0028424 102.9732 257.4678 15.18998887 42098
SL-16 R/B               
1 19120U 88039B   26002.74513918  .00000266  00000+0  14832-3 0  9993
2 19120  71.0132 207.9851 0019554  80.2401 280.0931 14.19601521949027
COSMOS 1953             
1 19210U 88050A   25363.34859606  .00008063  00000+0  30114-3 0  9992
2 19210  82.5080 228.9139 0012535  18.6006 341.5688 15.27141359 27045
SL-8 R/B                
1 19257U 88053B   26002.74649219  .00000508  00000+0  17320-3 0  9998
2 19257  74.0461 234.0046 0019004  70.2215 353.4475 14.38874754967114
COSMOS 1975             
1 19573U 88093A   26002.62450339  .00011150  00000+0  42086-3 0  9995
2 19573  82.5187 183.9160 0012587  46.3973 313.8308 15.26821074  9327
SL-14 R/B               
1 19574U 88093B   26002.80089595  .00001033  00000+0  11643-3 0  9992
2 19574  82.5320 103.9040 0019311 255.1605 222.6929 14.85578206991258
SL-16 R/B               
1 19650U 88102B   26002.79039622 -.00000163  00000+0 -58140-4 0  9991
2 19650  71.0003 290.1515 0011961 115.6058 244.6302 14.16142376917565
INTERCOSMOS 24          
1 20261U 89080A   26002.63766478  .00000921  00000+0  26217-3 0  9995
2 20261  82.6067 147.3676 1188900  86.0624 287.5232 12.59474949658483
SL-14 R/B               
1 20262U 89080C   26002.70555638  .00000555  00000+0  16621-3 0  9999
2 20262  82.5913 215.5596 1230172 335.6742  19.0676 12.50431515651908
DELTA 1 R/B             
1 20323U 89089B   26002.60939226  .00000786  00000+0  20339-3 0  9991
2 20323  97.0739 220.5384 0068429 332.5933  27.1662 14.50593921886159
ARIANE 40 R/B           
1 20443U 90005H   26002.72643622  .00000638  00000+0  21684-3 0  9999
2 20443  98.3213  65.3085 0010806  47.9321 312.2785 14.39817390883315
