CCSDS_OMM_VERS = 2.0
CREATION_DATE  = 
ORIGINATOR     = 

OBJECT_NAME    = COSMOS 1933
OBJECT_ID      = 1988-020A
CENTER_NAME    = EARTH
REF_FRAME      = TEME
TIME_SYSTEM    = UTC
MEAN_ELEMENT_THEORY = SGP/SGP4

EPOCH          = 2026-01-02T14:15:19.349280
MEAN_MOTION    = 15.17329749
ECCENTRICITY   = .000621
INCLINATION    = 82.5150
RA_OF_ASC_NODE = 316.2711
ARG_OF_PERICENTER = 75.8891
MEAN_ANOMALY   = 284.3032

EPHEMERIS_TYPE = 0
CLASSIFICATION_TYPE = U
NORAD_CAT_ID   = 18958
ELEMENT_SET_NO = 999
REV_AT_EPOCH   = 4020
BSTAR          = .40474E-3
MEAN_MOTION_DOT = .8105E-4
MEAN_MOTION_DDOT = 0

CCSDS_OMM_VERS = 2.0
CREATION_DATE  = 
ORIGINATOR     = 

OBJECT_NAME    = SL-3 R/B
OBJECT_ID      = 1988-032B
CENTER_NAME    = EARTH
REF_FRAME      = TEME
TIME_SYSTEM    = UTC
MEAN_ELEMENT_THEORY = SGP/SGP4

EPOCH          = 2026-01-02T17:54:04.458816
MEAN_MOTION    = 15.18998887
ECCENTRICITY   = .0028424
INCLINATION    = 97.5094
RA_OF_ASC_NODE = 346.3257
ARG_OF_PERICENTER = 102.9732
MEAN_ANOMALY   = 257.4678

EPHEMERIS_TYPE = 0
CLASSIFICATION_TYPE = U
NORAD_CAT_ID   = 19046
ELEMENT_SET_NO = 999
REV_AT_EPOCH   = 4209
BSTAR          = .45204E-3
MEAN_MOTION_DOT = .9494E-4
MEAN_MOTION_DDOT = 0

CCSDS_OMM_VERS = 2.0
CREATION_DATE  = 
ORIGINATOR     = 

OBJECT_NAME    = SL-16 R/B
OBJECT_ID      = 1988-039B
CENTER_NAME    = EARTH
REF_FRAME      = TEME
TIME_SYSTEM    = UTC
MEAN_ELEMENT_THEORY = SGP/SGP4

EPOCH          = 2026-01-02T17:53:00.025152
MEAN_MOTION    = 14.19601521
ECCENTRICITY   = .0019554
INCLINATION    = 71.0132
RA_OF_ASC_NODE = 207.9851
ARG_OF_PERICENTER = 80.2401
MEAN_ANOMALY   = 280.0931

EPHEMERIS_TYPE = 0
CLASSIFICATION_TYPE = U
NORAD_CAT_ID   = 19120
ELEMENT_SET_NO = 999
REV_AT_EPOCH   = 94902
BSTAR          = .14832E-3
MEAN_MOTION_DOT = .266E-5
MEAN_MOTION_DDOT = 0

CCSDS_OMM_VERS = 2.0
CREATION_DATE  = 
ORIGINATOR     = 

OBJECT_NAME    = COSMOS 1953
OBJECT_ID      = 1988-050A
CENTER_NAME    = EARTH
REF_FRAME      = TEME
TIME_SYSTEM    = UTC
MEAN_ELEMENT_THEORY = SGP/SGP4

EPOCH          = 2025-12-29T08:21:58.699584
MEAN_MOTION    = 15.27141359
ECCENTRICITY   = .00125356
INCLINATION    = 82.5080
RA_OF_ASC_NODE = 228.9139
ARG_OF_PERICENTER = 18.6006
MEAN_ANOMALY   = 341.5688

EPHEMERIS_TYPE = 0
CLASSIFICATION_TYPE = U
NORAD_CAT_ID   = 19210
ELEMENT_SET_NO = 999
REV_AT_EPOCH   = 2704
BSTAR          = .30113736E-3
MEAN_MOTION_DOT = .8063E-4
MEAN_MOTION_DDOT = 0

CCSDS_OMM_VERS = 2.0
CREATION_DATE  = 
ORIGINATOR     = 

OBJECT_NAME    = SL-8 R/B
OBJECT_ID      = 1988-053B
CENTER_NAME    = EARTH
REF_FRAME      = TEME
TIME_SYSTEM    = UTC
MEAN_ELEMENT_THEORY = SGP/SGP4

EPOCH          = 2026-01-02T17:54:56.925216
MEAN_MOTION    = 14.38874754
ECCENTRICITY   = .0019004
INCLINATION    = 74.0461
RA_OF_ASC_NODE = 234.0046
ARG_OF_PERICENTER = 70.2215
MEAN_ANOMALY   = 353.4475

EPHEMERIS_TYPE = 0
CLASSIFICATION_TYPE = U
NORAD_CAT_ID   = 19257
ELEMENT_SET_NO = 999
REV_AT_EPOCH   = 96711
BSTAR          = .1732E-3
MEAN_MOTION_DOT = .508E-5
MEAN_MOTION_DDOT = 0

CCSDS_OMM_VERS = 2.0
CREATION_DATE  = 
ORIGINATOR     = 

OBJECT_NAME    = COSMOS 1975
OBJECT_ID      = 1988-093A
CENTER_NAME    = EARTH
REF_FRAME      = TEME
TIME_SYSTEM    = UTC
MEAN_ELEMENT_THEORY = SGP/SGP4

EPOCH          = 2026-01-02T14:59:17.092896
MEAN_MOTION    = 15.26821074
ECCENTRICITY   = .0012587
INCLINATION    = 82.5187
RA_OF_ASC_NODE = 183.9160
ARG_OF_PERICENTER = 46.3973
MEAN_ANOMALY   = 313.8308

EPHEMERIS_TYPE = 0
CLASSIFICATION_TYPE = U
NORAD_CAT_ID   = 19573
ELEMENT_SET_NO = 999
REV_AT_EPOCH   = 932
BSTAR          = .42086E-3
MEAN_MOTION_DOT = .1115E-3
MEAN_MOTION_DDOT = 0

CCSDS_OMM_VERS = 2.0
CREATION_DATE  = 
ORIGINATOR     = 

OBJECT_NAME    = SL-14 R/B
OBJECT_ID      = 1988-093B
CENTER_NAME    = EARTH
REF_FRAME      = TEME
TIME_SYSTEM    = UTC
MEAN_ELEMENT_THEORY = SGP/SGP4

EPOCH          = 2026-01-02T19:13:17.410080
MEAN_MOTION    = 14.85578206
ECCENTRICITY   = .0019311
INCLINATION    = 82.5320
RA_OF_ASC_NODE = 103.9040
ARG_OF_PERICENTER = 255.1605
MEAN_ANOMALY   = 222.6929

EPHEMERIS_TYPE = 0
CLASSIFICATION_TYPE = U
NORAD_CAT_ID   = 19574
ELEMENT_SET_NO = 999
REV_AT_EPOCH   = 99125
BSTAR          = .11643E-3
MEAN_MOTION_DOT = .1033E-4
MEAN_MOTION_DDOT = 0

CCSDS_OMM_VERS = 2.0
CREATION_DATE  = 
ORIGINATOR     = 

OBJECT_NAME    = SL-16 R/B
OBJECT_ID      = 1988-102B
CENTER_NAME    = EARTH
REF_FRAME      = TEME
TIME_SYSTEM    = UTC
MEAN_ELEMENT_THEORY = SGP/SGP4

EPOCH          = 2026-01-02T18:58:10.233408
MEAN_MOTION    = 14.16142376
ECCENTRICITY   = .0011961
INCLINATION    = 71.0003
RA_OF_ASC_NODE = 290.1515
ARG_OF_PERICENTER = 115.6058
MEAN_ANOMALY   = 244.6302

EPHEMERIS_TYPE = 0
CLASSIFICATION_TYPE = U
NORAD_CAT_ID   = 19650
ELEMENT_SET_NO = 999
REV_AT_EPOCH   = 91756
BSTAR          = -.5814E-4
MEAN_MOTION_DOT = -.163E-5
MEAN_MOTION_DDOT = 0

CCSDS_OMM_VERS = 2.0
CREATION_DATE  = 
ORIGINATOR     = 

OBJECT_NAME    = INTERCOSMOS 24
OBJECT_ID      = 1989-080A
CENTER_NAME    = EARTH
REF_FRAME      = TEME
TIME_SYSTEM    = UTC
MEAN_ELEMENT_THEORY = SGP/SGP4

EPOCH          = 2026-01-02T15:18:14.236992
MEAN_MOTION    = 12.59474949
ECCENTRICITY   = .11889
INCLINATION    = 82.6067
RA_OF_ASC_NODE = 147.3676
ARG_OF_PERICENTER = 86.0624
MEAN_ANOMALY   = 287.5232

EPHEMERIS_TYPE = 0
CLASSIFICATION_TYPE = U
NORAD_CAT_ID   = 20261
ELEMENT_SET_NO = 999
REV_AT_EPOCH   = 65848
BSTAR          = .26217E-3
MEAN_MOTION_DOT = .921E-5
MEAN_MOTION_DDOT = 0

CCSDS_OMM_VERS = 2.0
CREATION_DATE  = 
ORIGINATOR     = 

OBJECT_NAME    = SL-14 R/B
OBJECT_ID      = 1989-080C
CENTER_NAME    = EARTH
REF_FRAME      = TEME
TIME_SYSTEM    = UTC
MEAN_ELEMENT_THEORY = SGP/SGP4

EPOCH          = 2026-01-02T16:56:00.071232
MEAN_MOTION    = 12.50431515
ECCENTRICITY   = .1230172
INCLINATION    = 82.5913
RA_OF_ASC_NODE = 215.5596
ARG_OF_PERICENTER = 335.6742
MEAN_ANOMALY   = 19.0676

EPHEMERIS_TYPE = 0
CLASSIFICATION_TYPE = U
NORAD_CAT_ID   = 20262
ELEMENT_SET_NO = 999
REV_AT_EPOCH   = 65190
BSTAR          = .16621E-3
MEAN_MOTION_DOT = .555E-5
MEAN_MOTION_DDOT = 0

CCSDS_OMM_VERS = 2.0
CREATION_DATE  = 
ORIGINATOR     = 

OBJECT_NAME    = DELTA 1 R/B
OBJECT_ID      = 1989-089B
CENTER_NAME    = EARTH
REF_FRAME      = TEME
TIME_SYSTEM    = UTC
MEAN_ELEMENT_THEORY = SGP/SGP4

EPOCH          = 2026-01-02T14:37:31.491264
MEAN_MOTION    = 14.50593921
ECCENTRICITY   = .0068429
INCLINATION    = 97.0739
RA_OF_ASC_NODE = 220.5384
ARG_OF_PERICENTER = 332.5933
MEAN_ANOMALY   = 27.1662

EPHEMERIS_TYPE = 0
CLASSIFICATION_TYPE = U
NORAD_CAT_ID   = 20323
ELEMENT_SET_NO = 999
REV_AT_EPOCH   = 88615
BSTAR          = .20339E-3
MEAN_MOTION_DOT = .786E-5
MEAN_MOTION_DDOT = 0

CCSDS_OMM_VERS = 2.0
CREATION_DATE  = 
ORIGINATOR     = 

OBJECT_NAME    = ARIANE 40 R/B
OBJECT_ID      = 1990-005H
CENTER_NAME    = EARTH
REF_FRAME      = TEME
TIME_SYSTEM    = UTC
MEAN_ELEMENT_THEORY = SGP/SGP4

EPOCH          = 2026-01-02T17:26:04.089408
MEAN_MOTION    = 14.39817390
ECCENTRICITY   = .0010806
INCLINATION    = 98.3213
RA_OF_ASC_NODE = 65.3085
ARG_OF_PERICENTER = 47.9321
MEAN_ANOMALY   = 312.2785

EPHEMERIS_TYPE = 0
CLASSIFICATION_TYPE = U
NORAD_CAT_ID   = 20443
ELEMENT_SET_NO = 999
REV_AT_EPOCH   = 88331
BSTAR          = .21684E-3
MEAN_MOTION_DOT = .638E-5
MEAN_MOTION_DDOT = 0

